Business Name,Category,About the Business,Website,Phone number,Address,Pictures,City,ZipCode
Business Name,Category,About the Business,Website,Phone number,Address,Pictures,City,ZipCode
Healing Elaine,Active Life,,,(917) 985-1221,"['Austin, TX 78701']","['https://s3-media2.fl.yelpcdn.com/bphoto/th4B8yCWvb1xSJCkcIaXXQ/o.jpg', 'https://s3-media4.fl.yelpcdn.com/bphoto/74sUXSm5qM6sdZ-vBM9-mA/o.jpg', 'https://s3-media4.fl.yelpcdn.com/bphoto/D6vdb4kpgvDeKOvAJs3A4A/o.jpg']",Austin,78701
The Wrecking Club,Active Life,,,(212) 933-0929,"['458 9th Ave', 'New York, NY 10018']","['https://s3-media4.fl.yelpcdn.com/bphoto/gp9lmv29L9jlrrmijWpIQQ/o.jpg', 'https://s3-media3.fl.yelpcdn.com/bphoto/9yBSIoSsqcvTgaM2Cwlw5w/o.jpg', 'https://s3-media3.fl.yelpcdn.com/bphoto/S-xN1vQM_41uUwlYfKbAFA/o.jpg']",New York,10018
PhysioRX,Active Life,,,(646) 860-0670,"['164 West 25th St', 'Fl 2', 'New York, NY 10001']","['https://s3-media2.fl.yelpcdn.com/bphoto/paA1V2DQmppSldwtbf1Idg/o.jpg', 'https://s3-media4.fl.yelpcdn.com/bphoto/wG2dhx0uVwMu_hXAFPOVvQ/o.jpg', 'https://s3-media1.fl.yelpcdn.com/bphoto/GSnUSkykMmo9JRi2Wnl8jw/o.jpg']",New York,10001
The Neuromuscular Center,Active Life,,,(212) 242-4962,"['148 W 23rd St', 'New York, NY 10011']","['https://s3-media1.fl.yelpcdn.com/bphoto/8Whqk-RMPfGlhUP6078FnA/o.jpg', 'https://s3-media2.fl.yelpcdn.com/bphoto/XlSKZL9bBEGMTS6yjUiTuA/o.jpg', 'https://s3-media1.fl.yelpcdn.com/bphoto/BR_zjGgS4MJTguSwakZiaQ/o.jpg']",New York,10011
SeaGlass Carousel,Active Life,,,(212) 344-3491,"['State St & Water St', 'The Battery Park', 'New York, NY 10004']","['https://s3-media2.fl.yelpcdn.com/bphoto/rNZU-Q-lRVCKpN4VnUVrog/o.jpg', 'https://s3-media4.fl.yelpcdn.com/bphoto/dec-ovATdNOmHC0GGXvjMg/o.jpg', 'https://s3-media2.fl.yelpcdn.com/bphoto/BsgMXgl-S8vNY1M3P6b29w/o.jpg']",New York,10004
Pain Care Chiropractic,Active Life,,,(212) 966-9899,"['80 Bowery', 'Ste 403', 'New York, NY 10013']","['https://s3-media2.fl.yelpcdn.com/bphoto/WImCp-WbX0jOEZH2_w9rsw/o.jpg', 'https://s3-media4.fl.yelpcdn.com/bphoto/XDVH5OQSxjo48As292EODQ/o.jpg', 'https://s3-media1.fl.yelpcdn.com/bphoto/LCjiXSUgwtksBNzvYrVXRA/o.jpg']",New York,10013
The Rage Cage,Active Life,,,(347) 799-1773,"['235 Grand St', 'Brooklyn, NY 11211']","['https://s3-media4.fl.yelpcdn.com/bphoto/Yp8SzconCgKz2oTLQdjfUg/o.jpg', 'https://s3-media3.fl.yelpcdn.com/bphoto/T55oND3igSBSqXNuaH5hAQ/o.jpg', 'https://s3-media2.fl.yelpcdn.com/bphoto/X7G8mkhR2VbEqJR3B0JOQQ/o.jpg']",Brooklyn,11211
Move Well MD,Active Life,,,(646) 664-1883,"['150 Broadway', 'Ste 1213', 'New York, NY 10038']","['https://s3-media2.fl.yelpcdn.com/bphoto/pF4Prpe-6A9ZUaWjIetV-A/o.jpg', 'https://s3-media3.fl.yelpcdn.com/bphoto/W0mlvFAIjjviOG3I8SxJyA/o.jpg', 'https://s3-media2.fl.yelpcdn.com/bphoto/Wpa9FmsIyEyr561cAjHf3g/o.jpg']",New York,10038
Be Activated,Active Life,,,(516) 206-0674,"['12 W 27th St', 'Fl 9', 'New York, NY 10001']",['https://s3-media1.fl.yelpcdn.com/bphoto/9d6yBbqqkCP0X45fOyxPfQ/o.jpg'],New York,10001
East Village Chiropractic,Active Life,,,(212) 260-2213,"['33 E 7th St', 'New York, NY 10003']","['https://s3-media2.fl.yelpcdn.com/bphoto/fXeZqyA7d6mkGWoC4PG4Og/o.jpg', 'https://s3-media3.fl.yelpcdn.com/bphoto/QVnTCEifvNfygVugpszc4A/o.jpg', 'https://s3-media3.fl.yelpcdn.com/bphoto/av0hu8c9B-Oc_eaQCVbq2g/o.jpg']",New York,10003
Park Slope Chiropractic,Active Life,,,(718) 839-6665,"['1 Hanson Pl', 'Ste 709', 'Brooklyn, NY 11243']","['https://s3-media2.fl.yelpcdn.com/bphoto/TatkniJcemBkaqF9zuT8Eg/o.jpg', 'https://s3-media1.fl.yelpcdn.com/bphoto/FvFUgZAOriiwv60tfrqohA/o.jpg', 'https://s3-media1.fl.yelpcdn.com/bphoto/dkrYAfr3YgkdJ5JMW7eKuw/o.jpg']",Brooklyn,11243
"Dr Eric Steibl, DC - Muscle Activation Techniques & Rolfing",Active Life,,,(212) 586-6149,"['11040 Santa Monica Blvd', 'Ste 404', 'Los Angeles, CA 90025']","['https://s3-media2.fl.yelpcdn.com/bphoto/2hUx6dqaCmWPYcxkv_XzLg/o.jpg', 'https://s3-media3.fl.yelpcdn.com/bphoto/JGvVqn_uB-tkDQ15-25IWw/o.jpg', 'https://s3-media4.fl.yelpcdn.com/bphoto/GZPKDX8ilj3frMTjvRYrZg/o.jpg']",Los Angeles,90025
Freedom Hypnosis,Active Life,,,(917) 300-1809,"['New York, NY 11101']","['https://s3-media1.fl.yelpcdn.com/bphoto/rtP2kvQT3_j-s7SD-E4DHg/o.jpg', 'https://s3-media3.fl.yelpcdn.com/bphoto/f_nEZUxykuEZGxUd_jGHkw/o.jpg', 'https://s3-media1.fl.yelpcdn.com/bphoto/ymQYoBZ9uuM4fumTWKSS8g/o.jpg']",New York,11101
Strive Total Wellness,Active Life,,,(212) 596-4360,"['44 East 32nd St', 'Fl 8', 'New York, NY 10016']","['https://s3-media2.fl.yelpcdn.com/bphoto/eMbnbcwwbUPvSpnwnNG1ag/o.jpg', 'https://s3-media1.fl.yelpcdn.com/bphoto/1vQYAyquPo6ca0R4F8ZdnA/o.jpg', 'https://s3-media3.fl.yelpcdn.com/bphoto/o6phdaiMbMWO0zLMiiY_Jw/o.jpg']",New York,10016
Atlas Chiropractic Spine Care,Active Life,,,(212) 379-6535,"['65 Broadway', 'Ste 1003', 'New York, NY 10006']","['https://s3-media3.fl.yelpcdn.com/bphoto/5qA-a_92Ui1LFpU_evyM6g/o.jpg', 'https://s3-media1.fl.yelpcdn.com/bphoto/FYqkWz7xGF7M043MWTaf3g/o.jpg', 'https://s3-media1.fl.yelpcdn.com/bphoto/BeuXw_G8f0CiQFoO-yuwWw/o.jpg']",New York,10006
Oasis Chiropractic & Wellness Center,Active Life,,,(212) 582-1122,"['330 W 58th', 'Ste 501', 'New York, NY 10019']","['https://s3-media2.fl.yelpcdn.com/bphoto/-eegTwUYwz_wSSp7VhMABg/o.jpg', 'https://s3-media4.fl.yelpcdn.com/bphoto/PCA96TeeWVFm9V7lScmAKA/o.jpg']",New York,10019
"City Physical Therapy, PC",Active Life,,,(212) 537-0110,"['118 Baxter St', 'Ste 303', 'New York, NY 10013']","['https://s3-media3.fl.yelpcdn.com/bphoto/iK9E_sghTSs3UGUaD-MwFw/o.jpg', 'https://s3-media1.fl.yelpcdn.com/bphoto/wNGd48nIHeAIJogiC9dzXQ/o.jpg', 'https://s3-media3.fl.yelpcdn.com/bphoto/u3Jkm6jwyf4IgjMwtCQHHA/o.jpg']",New York,10013
Neo Tantra Sacred Orgasm,Active Life,,,(917) 727-8327,"['303 Fifth Ave', 'New York, NY 10016']","['https://s3-media4.fl.yelpcdn.com/bphoto/kvnmFoHPGoGlw-hAb6n53A/o.jpg', 'https://s3-media3.fl.yelpcdn.com/bphoto/Eh2jqNM4A43Eq_Y-rtptlg/o.jpg', 'https://s3-media4.fl.yelpcdn.com/bphoto/OLAi-6QUIBigS7GM2X_UHw/o.jpg']",New York,10016
Perfect Stride Physical Therapy,Active Life,,,(917) 494-4284,"['32 Union Square E', 'Ste 215', 'Manhattan, NY 10003']","['https://s3-media1.fl.yelpcdn.com/bphoto/7jQZkAslagMxBIB048lMXA/o.jpg', 'https://s3-media1.fl.yelpcdn.com/bphoto/1lu5VchyuZx4h7yOdxmCtg/o.jpg', 'https://s3-media3.fl.yelpcdn.com/bphoto/mfK0-Bm2cK1SdkITkFFwVA/o.jpg']",Manhattan,10003
First Response Advantage,Active Life,,,(646) 290-6540,"['1133 Broadway', 'Ste 619', 'New York, NY 10010']","['https://s3-media3.fl.yelpcdn.com/bphoto/MOzyS5pYWLpKAR_FVztrog/o.jpg', 'https://s3-media1.fl.yelpcdn.com/bphoto/2h7S6sgAyOjLkpxHuvSXKA/o.jpg', 'https://s3-media2.fl.yelpcdn.com/bphoto/P-99UwWlmaFAKo0-pOPIhw/o.jpg']",New York,10010
Choose A Life You Love,Active Life,,,(929) 273-1333,"['350 Fifth Ave', 'New York, NY 10118']","['https://s3-media2.fl.yelpcdn.com/bphoto/ROdasWlVLyNGDfmcgiXk1w/o.jpg', 'https://s3-media3.fl.yelpcdn.com/bphoto/wHCBiqjmy_uYuTgo5TZtmA/o.jpg']",New York,10118
Active Travel Vietnam,Active Life,,,(844) 573-8569,"['31 /4 Dang Van Ngu St', 'Hanoi, NY 00844']",['https://s3-media2.fl.yelpcdn.com/bphoto/UNHfL0cPJ_o3FjdXARzFRQ/o.jpg'],Hanoi,00844
Symbio Physio,Active Life,,,(917) 310-5427,"['25 W 14th St', 'Fl 2', 'New York, NY 10011']","['https://s3-media4.fl.yelpcdn.com/bphoto/vGp0MEXxdLlQXc9MaYdAag/o.jpg', 'https://s3-media3.fl.yelpcdn.com/bphoto/iha4nJidmlR29Kr_XADkdw/o.jpg', 'https://s3-media1.fl.yelpcdn.com/bphoto/JLxAjokCsIRigfVHKXKCnQ/o.jpg']",New York,10011
Tenement Museum,Active Life,,,(877) 975-3786,"['103 Orchard St', 'New York, NY 10002']","['https://s3-media3.fl.yelpcdn.com/bphoto/BPSW5NV9gzcRX0jinZFhTQ/o.jpg', 'https://s3-media1.fl.yelpcdn.com/bphoto/gL7KWnLFWcCqZT0EiqVEow/o.jpg', 'https://s3-media3.fl.yelpcdn.com/bphoto/4HPWQ3yqExO5-mAKkCxb9Q/o.jpg']",New York,10002
Veech Sports Chiropractic,Active Life,,,(646) 470-6480,"['853 Broadway', 'Ste 1601', 'New York, NY 10003']","['https://s3-media1.fl.yelpcdn.com/bphoto/aHNcBaxxCfLcYL4usC_z_A/o.jpg', 'https://s3-media2.fl.yelpcdn.com/bphoto/u37aw4-oFZqnYSRl_cWNFQ/o.jpg', 'https://s3-media2.fl.yelpcdn.com/bphoto/pKxkhLXlL90MUScd6gLJYA/o.jpg']",New York,10003
Spyscape,Active Life,,,(212) 549-1941,"['928 8th Ave', 'New York, NY 10019']","['https://s3-media2.fl.yelpcdn.com/bphoto/1jZ6TW68ljx6Fo65fNRRXQ/o.jpg', 'https://s3-media3.fl.yelpcdn.com/bphoto/-1qZLEyWP-aUlCRQeHurlQ/o.jpg', 'https://s3-media1.fl.yelpcdn.com/bphoto/QRKawb7jgsV27oSmYCkJiA/o.jpg']",New York,10019
Williamsburg Chiropractic,Active Life,,,(718) 222-9700,"['729 Wythe Ave', 'Brooklyn, NY 11249']","['https://s3-media4.fl.yelpcdn.com/bphoto/YO2-aNn6hfqzng8Da_r-NQ/o.jpg', 'https://s3-media2.fl.yelpcdn.com/bphoto/_Ms0r7P_0ZKvmHrF_4c5EQ/o.jpg', 'https://s3-media2.fl.yelpcdn.com/bphoto/oTiD4U4CoZsgJcNkiSSKcg/o.jpg']",Brooklyn,11249
TAI Chiropractic,Active Life,,,(212) 931-8544,"['119 West 57th St', 'Ste 212', 'Manhattan, NY 10019']","['https://s3-media3.fl.yelpcdn.com/bphoto/IA-tOM438HW6Sli7sEJNaw/o.jpg', 'https://s3-media1.fl.yelpcdn.com/bphoto/bjRik9HOLh6w4f51Tv7nYw/o.jpg', 'https://s3-media4.fl.yelpcdn.com/bphoto/B8trVvE1Rl08CLl415N7AQ/o.jpg']",Manhattan,10019
Active Chiropractic Healthcare,Active Life,,,(212) 673-2590,"['36 E 23rd St', 'Ste 3R', 'New York, NY 10010']","['https://s3-media1.fl.yelpcdn.com/bphoto/Q5N7CmUb_4yExnptwVFCyQ/o.jpg', 'https://s3-media2.fl.yelpcdn.com/bphoto/V2078oL2U88s3QMi8Fzy5g/o.jpg', 'https://s3-media2.fl.yelpcdn.com/bphoto/0-31h-SF9CICdixtf3Xvuw/o.jpg']",New York,10010
Drew McClain,Active Life,,,(714) 553-2610,"['656 Saint Nicholas Ave', 'New York, NY 10030']","['https://s3-media4.fl.yelpcdn.com/bphoto/RUSSwqZzDlS4lF6R9pCNoQ/o.jpg', 'https://s3-media1.fl.yelpcdn.com/bphoto/pA2pfNsaUgg10rVAg-Vf0w/o.jpg', 'https://s3-media3.fl.yelpcdn.com/bphoto/OnyqG6MDK1XVr8c-G5AwSA/o.jpg']",New York,10030
"Hernandez Alex, DC",Active Life,,,(201) 861-2025,"['8325 Kennedy Blvd', 'North Bergen, NJ 07047']","['https://s3-media2.fl.yelpcdn.com/bphoto/YsQLl1EXyqoztrjZEyTQtw/o.jpg', 'https://s3-media3.fl.yelpcdn.com/bphoto/eZUXmEW25wUH3Na1E8E2eQ/o.jpg', 'https://s3-media2.fl.yelpcdn.com/bphoto/Q-JCJr6qzfustQnHuEk2Ug/o.jpg']",North Bergen,07047
But First Self Love,Active Life,,,(707) 688-0967,"['Fairfield, CA 94533']","['https://s3-media3.fl.yelpcdn.com/bphoto/vs9EDeWXkIVfTJVwI5B9fg/o.jpg', 'https://s3-media3.fl.yelpcdn.com/bphoto/rSCHVRPwpxdLpnnXAyyMAA/o.jpg', 'https://s3-media4.fl.yelpcdn.com/bphoto/TB7VKQXwCo48zugcpw6lMw/o.jpg']",Fairfield,94533
Health SOS,Active Life,,,(212) 343-1500,"['594 Broadway', 'New York, NY 10012']",['https://s3-media3.fl.yelpcdn.com/bphoto/QCesgjfitLDe1iEndPRrtg/o.jpg'],New York,10012
NYC Chiropractic and Spinal Decompression Center,Active Life,,,(212) 645-8151,"['636 Broadway', 'Ste 1210', 'New York, NY 10012']","['https://s3-media2.fl.yelpcdn.com/bphoto/cqO6X7YuuumK92b3xY0CMQ/o.jpg', 'https://s3-media3.fl.yelpcdn.com/bphoto/uZSQL1iGp9-PeVt3STmxFA/o.jpg', 'https://s3-media1.fl.yelpcdn.com/bphoto/_uwNBjojZ1Tc0TmdHGDO3A/o.jpg']",New York,10012
New York City Nutrition,Active Life,,,(917) 770-5124,"['245 5th Ave', 'Fl 3', 'New York, NY 10016']","['https://s3-media3.fl.yelpcdn.com/bphoto/sNyCgfBvrP-G8fYKu0jvGg/o.jpg', 'https://s3-media1.fl.yelpcdn.com/bphoto/vHrr32p5rYUre2uPGws_sg/o.jpg', 'https://s3-media1.fl.yelpcdn.com/bphoto/wb1ozuyi72_8y2ESUDmEBA/o.jpg']",New York,10016
New York Life Coaching,Active Life,,,(646) 789-5612,"['136 W 87th St', 'New York, NY 10024']","['https://s3-media3.fl.yelpcdn.com/bphoto/igIZ6l835kUpNWZtHIXtcQ/o.jpg', 'https://s3-media2.fl.yelpcdn.com/bphoto/IznOg3oXQUaspnrXkM0JmA/o.jpg']",New York,10024
Center For Loss & Renewal,Active Life,,,(212) 874-4711,"['168 W 86th St', 'New York, NY 10024']",[],New York,10024
Hudson Medical,Active Life,,,(646) 596-7386,"['281 Broadway', 'New York, NY 10007']","['https://s3-media2.fl.yelpcdn.com/bphoto/b4I5_n9kw96IWNlCmAxqPw/o.jpg', 'https://s3-media3.fl.yelpcdn.com/bphoto/rrSUZFoAYX1EgIAKRF6KNA/o.jpg', 'https://s3-media4.fl.yelpcdn.com/bphoto/N57V-RBPF3Hh_KM7y6eAHA/o.jpg']",New York,10007
Lux Physical Therapy and Performance,Active Life,,,(920) 217-5495,"['98 Bayard St', 'Brooklyn, NY 11222']","['https://s3-media1.fl.yelpcdn.com/bphoto/o0rzJMD6gmKvwa0EPNY8Uw/o.jpg', 'https://s3-media1.fl.yelpcdn.com/bphoto/HuGq2iDppPrUswAbcmBGkw/o.jpg']",Brooklyn,11222
Korean K9 Rescue,Active Life,,,,"['Queens, NY 11101']","['https://s3-media1.fl.yelpcdn.com/bphoto/YATEdhn0EGTJSC8Up95O_w/o.jpg', 'https://s3-media3.fl.yelpcdn.com/bphoto/g3VmZbP4iOU3h-DpE3QIRg/o.jpg', 'https://s3-media2.fl.yelpcdn.com/bphoto/0lDTignt-1GXPrIq8rNsLA/o.jpg']",Queens,11101
Rachel Felson Rolfing,Active Life,,,(860) 424-7293,"['69 8th Ave', 'Ste 10', 'New York, NY 10014']","['https://s3-media3.fl.yelpcdn.com/bphoto/ShEPNvsOLHGeXy0B5IR7hg/o.jpg', 'https://s3-media2.fl.yelpcdn.com/bphoto/_hNRDHAbBBbKgOJBL9f0sA/o.jpg', 'https://s3-media4.fl.yelpcdn.com/bphoto/3G7JgEDDMR426f3xiwQOxQ/o.jpg']",New York,10014
DASHAÂ® Flagship,Active Life,,,(212) 755-5500,"['115 E 57th St', 'Ste 520', 'New York, NY 10022']","['https://s3-media2.fl.yelpcdn.com/bphoto/hMOh9fgYGkA9sjER5P4idg/o.jpg', 'https://s3-media4.fl.yelpcdn.com/bphoto/ouTTy7jNdVI2Iu4tAffY7g/o.jpg', 'https://s3-media2.fl.yelpcdn.com/bphoto/JI6tiAgqI_KjGnjvZ6KDyw/o.jpg']",New York,10022
Golden Hands Physical Therapy,Active Life,,,(917) 699-5147,"['171 E 74th St', 'Ste C3', 'New York, NY 10021']","['https://s3-media1.fl.yelpcdn.com/bphoto/XJ6J8TWlqajeeil6wHbgRQ/o.jpg', 'https://s3-media1.fl.yelpcdn.com/bphoto/xywKbQMuyyuYCbeqMsbUYA/o.jpg', 'https://s3-media2.fl.yelpcdn.com/bphoto/Vk89Omn8BO7jr4kJ0nBKjg/o.jpg']",New York,10021
PhysioRX,Active Life,,,(646) 860-0670,"['1740 Broadway', 'New York, NY 10019']","['https://s3-media3.fl.yelpcdn.com/bphoto/4CRd_q-rQh4mmrNxg5lrSg/o.jpg', 'https://s3-media4.fl.yelpcdn.com/bphoto/hM_hdOYd5CanKr42qftsaw/o.jpg', 'https://s3-media3.fl.yelpcdn.com/bphoto/6RxzZ3toxbnCahHvFOHoeg/o.jpg']",New York,10019
Furry Paw Pics,Active Life,,,(407) 374-2442,"['253 Main St', 'Ste 187', 'Matawan, NJ 07747']","['https://s3-media4.fl.yelpcdn.com/bphoto/asZWFm4669b2SdtPEWoN6g/o.jpg', 'https://s3-media3.fl.yelpcdn.com/bphoto/jBpkVQHqINIE6ycNGEK5Vg/o.jpg', 'https://s3-media2.fl.yelpcdn.com/bphoto/TMgjLXJ9nledcxU_qSX87A/o.jpg']",Matawan,07747
Cornell & Associates Marriage and Family Therapy,Active Life,,,(917) 225-1401,"['41 Union Sq W', 'Ste 1328', 'New York, NY 10003']","['https://s3-media2.fl.yelpcdn.com/bphoto/Ve0OebePmqQP4EOXHr3kyw/o.jpg', 'https://s3-media4.fl.yelpcdn.com/bphoto/j_rbBIMu2LxEzOizOqylew/o.jpg', 'https://s3-media4.fl.yelpcdn.com/bphoto/sXUyfFB1z3CdFTKJ-GEzpQ/o.jpg']",New York,10003
Pier 25,Active Life,,,(212) 766-1104,"['225 W St', 'Hudson River Park', 'New York, NY 10013']","['https://s3-media3.fl.yelpcdn.com/bphoto/aZXPXoiTYOO8o9VjHPsBGQ/o.jpg', 'https://s3-media3.fl.yelpcdn.com/bphoto/m9G0JFxOzcvYuoHos-x5yQ/o.jpg', 'https://s3-media2.fl.yelpcdn.com/bphoto/jyS2SC7zx4ncqWLfu6TSgQ/o.jpg']",New York,10013
Olivier's Trails,Active Life,,,(646) 207-5653,"['Brooklyn, NY 11222']","['https://s3-media3.fl.yelpcdn.com/bphoto/axr-dvi89i8AsuNTS9Vbig/o.jpg', 'https://s3-media3.fl.yelpcdn.com/bphoto/EDmm6lJtWSxRHD-LuQWJdg/o.jpg']",Brooklyn,11222
Color Factory,Active Life,,,,"['251 Spring St', 'New York, NY 10013']","['https://s3-media4.fl.yelpcdn.com/bphoto/-MbWWzunoy2e4jh9_NnizA/o.jpg', 'https://s3-media1.fl.yelpcdn.com/bphoto/vHEXL4pIs7F3-KSEh28KFQ/o.jpg', 'https://s3-media3.fl.yelpcdn.com/bphoto/UNiRJ-cuKeY_KcS-Md7RXQ/o.jpg']",New York,10013
The High Line,Active Life,,,(212) 206-9922,"['820 Washington St', 'New York, NY 10014']","['https://s3-media4.fl.yelpcdn.com/bphoto/17S5uE5ARNaFjLWizkS7DQ/o.jpg', 'https://s3-media2.fl.yelpcdn.com/bphoto/nDY_gmq657AwG3y9W_Wm1Q/o.jpg', 'https://s3-media3.fl.yelpcdn.com/bphoto/EmcYudpGFlDRclkARn2UfA/o.jpg']",New York,10014
Back Together Again Chiropractic,Active Life,,,(212) 769-9065,"['230 W 72nd St', 'Apt 2R', 'New York, NY 10023']","['https://s3-media2.fl.yelpcdn.com/bphoto/Kv3Ef9_WIBa_JDiBxXe57Q/o.jpg', 'https://s3-media3.fl.yelpcdn.com/bphoto/U5PBufKZvlrNVeHWhPAvsA/o.jpg', 'https://s3-media2.fl.yelpcdn.com/bphoto/Qa61QC6hWbwpCdwWGmXSrQ/o.jpg']",New York,10023
Sea The City Jet Ski,Active Life,,,(201) 335-2732,"['84 Audrey Zapp Dr', 'Jersey City, NJ 07305']","['https://s3-media2.fl.yelpcdn.com/bphoto/wawCKbceIznxxD8ppnVkMA/o.jpg', 'https://s3-media3.fl.yelpcdn.com/bphoto/V68UimpRVEWnNZ2ClJ-52Q/o.jpg', 'https://s3-media1.fl.yelpcdn.com/bphoto/-QWL9TbKtpN3D0iNdzY2IA/o.jpg']",Jersey City,07305
Transcend Recovery Community - New York,Active Life,,,(800) 648-3906,"['343 W 71st St', 'New York, NY 10023']","['https://s3-media2.fl.yelpcdn.com/bphoto/6FNcRYRs6Txu3jr_2lGlDA/o.jpg', 'https://s3-media3.fl.yelpcdn.com/bphoto/5J9-aqqBPljzhGmVTzUD6A/o.jpg', 'https://s3-media1.fl.yelpcdn.com/bphoto/LtTAyLIRP3YiUwTBaeTyEA/o.jpg']",New York,10023
Movement Minded PhysioTherapy,Active Life,,,(212) 653-8873,"['194 3rd Ave', 'Remorca Fitness', 'NY, NY 10003']","['https://s3-media4.fl.yelpcdn.com/bphoto/XwoKmzjqrbZKOhWexsoqrA/o.jpg', 'https://s3-media1.fl.yelpcdn.com/bphoto/e_RKbPDTy0NOoFAfb-j_Rg/o.jpg', 'https://s3-media3.fl.yelpcdn.com/bphoto/PrekvU9-PWS7hAlHx80EHg/o.jpg']",NY,10003
Tracy Einstein,Active Life,,,(970) 219-3029,"['151 W 30th St', 'Fl 3', 'The Balance Arts Center', 'New York, NY 10001']","['https://s3-media3.fl.yelpcdn.com/bphoto/6vgTPvW0QeK7PW3sju9yHA/o.jpg', 'https://s3-media2.fl.yelpcdn.com/bphoto/SZNWIFMD7n_kVNAedLIRoQ/o.jpg', 'https://s3-media1.fl.yelpcdn.com/bphoto/Xf3X28f2GQf_F79-iU2yEA/o.jpg']",New York,10001
"Elizabeth Greenberg, DC",Active Life,,,,"['New York, NY 10003']","['https://s3-media1.fl.yelpcdn.com/bphoto/Zn5cLNSdPF10-3Rpig9NsA/o.jpg', 'https://s3-media1.fl.yelpcdn.com/bphoto/cazE7jikCmNhXxPnHHGpGA/o.jpg', 'https://s3-media3.fl.yelpcdn.com/bphoto/UfQgtzBbK64bXyXl7rgcbw/o.jpg']",New York,10003
Spring Street Chiropractic,Active Life,,,(212) 343-9218,"['21 Spring St', 'New York, NY 10012']","['https://s3-media2.fl.yelpcdn.com/bphoto/7ZIQcQl8pDyNx6niacUGjw/o.jpg', 'https://s3-media1.fl.yelpcdn.com/bphoto/9mFUvDemDzKMHD7Tq2nlmQ/o.jpg', 'https://s3-media2.fl.yelpcdn.com/bphoto/qed4SYv8D9Uyhaxk4BzpvQ/o.jpg']",New York,10012
Theodore Roosevelt Birthplace National Historic Site,Active Life,,,(212) 260-1616,"['28 E 20th St', 'New York, NY 10003']","['https://s3-media2.fl.yelpcdn.com/bphoto/NOsQyyUcU2i0wNdXrMekKA/o.jpg', 'https://s3-media1.fl.yelpcdn.com/bphoto/3MH0wPOE67GPnSl3A3MpVQ/o.jpg', 'https://s3-media3.fl.yelpcdn.com/bphoto/-yZryNEYIkBGYqApJ4cLFw/o.jpg']",New York,10003
NAO Wellness,Active Life,,,(646) 830-4423,"['28 W 12th St', 'New York, NY 10011']","['https://s3-media2.fl.yelpcdn.com/bphoto/qTCfvJvrW3-scehDLjlw1A/o.jpg', 'https://s3-media4.fl.yelpcdn.com/bphoto/K8-7n2mTBLCub-vDb15CdQ/o.jpg', 'https://s3-media2.fl.yelpcdn.com/bphoto/FnLzrZpV8nWXWlTevIRQBg/o.jpg']",New York,10011
MaxWell Medical,Active Life,,,(212) 684-4325,"['301 Madison Ave', 'Fl 5', 'New York, NY 10017']","['https://s3-media3.fl.yelpcdn.com/bphoto/2h7KXvDJGM6K3aGPUFxA5A/o.jpg', 'https://s3-media1.fl.yelpcdn.com/bphoto/0yqIs4A1HZsYTDnM_YXSlw/o.jpg', 'https://s3-media1.fl.yelpcdn.com/bphoto/XQEtWEZtb5rE6B1FmAEEvA/o.jpg']",New York,10017
Elevated Health NYC,Active Life,,,(917) 717-2300,"['70 E 55th St', 'Fl 2', 'New York, NY 10022']","['https://s3-media1.fl.yelpcdn.com/bphoto/mMtGrEb5G6QrU96S50aaNA/o.jpg', 'https://s3-media1.fl.yelpcdn.com/bphoto/9II--Nr3tboID7wkFU7UvQ/o.jpg', 'https://s3-media2.fl.yelpcdn.com/bphoto/cCuyd23UIoFPKxfETPtczA/o.jpg']",New York,10022
Spear Physical Therapy - W 75th Street,Active Life,,,(646) 518-5559,"['235 W 75th St', 'New York, NY 10023']","['https://s3-media2.fl.yelpcdn.com/bphoto/LPGBR6rFEhqcrZ97lVhp6A/o.jpg', 'https://s3-media3.fl.yelpcdn.com/bphoto/xD7k3rIfjWeTrtIw4b29ww/o.jpg', 'https://s3-media1.fl.yelpcdn.com/bphoto/AtWCX_Z5U3HskTx2mscZZg/o.jpg']",New York,10023
"Richard T Hui, DC PC",Active Life,,,(212) 561-5377,"['111 Broadway', 'Ste 801', 'New York, NY 10006']","['https://s3-media4.fl.yelpcdn.com/bphoto/bN3Fp_l95UfbRxmPsVH3Fw/o.jpg', 'https://s3-media3.fl.yelpcdn.com/bphoto/zOCMfT9dpgJGdPjmiDXP9w/o.jpg', 'https://s3-media1.fl.yelpcdn.com/bphoto/f8SeUHRloBY781dFkcHrcA/o.jpg']",New York,10006
Live Holistic,Active Life,,,(718) 921-5483,"['446 Bayridge Pkwy', 'Brooklyn, NY 11209']","['https://s3-media2.fl.yelpcdn.com/bphoto/P_Mu3g6-VOQ8jHad6Yx5Mw/o.jpg', 'https://s3-media2.fl.yelpcdn.com/bphoto/MGuwvjsm_tBRUb0R8-DPCA/o.jpg', 'https://s3-media3.fl.yelpcdn.com/bphoto/q5YuTOL_mRORXNhSeGGWhA/o.jpg']",Brooklyn,11209
"Nadia Afridi, MD",Active Life,,,(212) 421-5100,"['815 Park Ave', 'New York, NY 10021']","['https://s3-media3.fl.yelpcdn.com/bphoto/02j96CUbQENxOhRg4C3-Hg/o.jpg', 'https://s3-media4.fl.yelpcdn.com/bphoto/fGP80vpRr2DDKzo_zPaq0Q/o.jpg', 'https://s3-media2.fl.yelpcdn.com/bphoto/_17aWQ1p-ygQhyk2xZxADw/o.jpg']",New York,10021
NYC Healing and Massage,Active Life,,,(646) 352-3599,"['80 Nassau St', 'Ste 202', 'New York, NY 10038']","['https://s3-media1.fl.yelpcdn.com/bphoto/Szgpdx8jUBE2_ye2y2l9cw/o.jpg', 'https://s3-media2.fl.yelpcdn.com/bphoto/uOUUnwHBdCHwV2Eq9xO1hQ/o.jpg', 'https://s3-media1.fl.yelpcdn.com/bphoto/Qb7Yi3XCYK968pNaXEQ3JA/o.jpg']",New York,10038
Travendly,Active Life,,,(800) 646-9741,"['137 W 25th St', 'Fl 11', 'New York, NY 10001']","['https://s3-media4.fl.yelpcdn.com/bphoto/lzFtL9KK2boZxUERELdL9Q/o.jpg', 'https://s3-media3.fl.yelpcdn.com/bphoto/wus2dHqSFp09DgyZAIfIAQ/o.jpg', 'https://s3-media4.fl.yelpcdn.com/bphoto/EID1M-gJ0VcqKCqDcgn7sA/o.jpg']",New York,10001
Spear Physical Therapy Brooklyn Heights - St. George Hotel,Active Life,,,(646) 518-5566,"['41 Clark St', 'Brooklyn, NY 11201']","['https://s3-media4.fl.yelpcdn.com/bphoto/19AqH01ltPu4fVeTov8zSQ/o.jpg', 'https://s3-media2.fl.yelpcdn.com/bphoto/HaqCeGvBhDqFz5B0uVF3Yg/o.jpg', 'https://s3-media1.fl.yelpcdn.com/bphoto/sZCIokWbh0B0z36jJtjH0A/o.jpg']",Brooklyn,11201
Song of Sparrows,Active Life,,,(718) 644-6652,"['29 W 36th St', 'Fl 5', 'New York, NY 10018']","['https://s3-media2.fl.yelpcdn.com/bphoto/WhzB0co3NHqBYScGwq2OFg/o.jpg', 'https://s3-media1.fl.yelpcdn.com/bphoto/QceXHuvdsrWvTL1W33AMLg/o.jpg', 'https://s3-media3.fl.yelpcdn.com/bphoto/B7iWcX0NvkGs6ZdeLkYbfw/o.jpg']",New York,10018
ABC Languages,Active Life,,,(212) 563-7580,"['146 W 29th St', 'Fl 6', 'New York, NY 10001']","['https://s3-media2.fl.yelpcdn.com/bphoto/W3qiTAl8IwmXRHtu-O_Jhw/o.jpg', 'https://s3-media1.fl.yelpcdn.com/bphoto/NZtGQJxjQt7rpmcJp0ugiw/o.jpg', 'https://s3-media4.fl.yelpcdn.com/bphoto/zWP7KvUsJS5yn8j-E2D9Sg/o.jpg']",New York,10001
Midtown East Physical Therapy,Active Life,,,(212) 922-0044,"['20 E 46th St', 'Ste 301', 'New York, NY 10017']","['https://s3-media2.fl.yelpcdn.com/bphoto/VVPpmOx7ek2Qb6jIrCGsjA/o.jpg', 'https://s3-media2.fl.yelpcdn.com/bphoto/gp92JvOazZM-9bQ5AGHAdg/o.jpg', 'https://s3-media1.fl.yelpcdn.com/bphoto/4DA9vHtLM16tglZo3lTRKA/o.jpg']",New York,10017
Unarthodox,Active Life,,,(646) 964-4733,"['547 W 27th St', 'Ste 300', 'New York, NY 10001']","['https://s3-media3.fl.yelpcdn.com/bphoto/8GWpbaArwks3jYCbQxPpGw/o.jpg', 'https://s3-media2.fl.yelpcdn.com/bphoto/YYrAxAeFJiCK9bavLjuPxw/o.jpg', 'https://s3-media2.fl.yelpcdn.com/bphoto/4xN-WcrJnkcfAEs5vrNJgQ/o.jpg']",New York,10001
Village Chiropractic Associates,Active Life,,,(212) 673-4331,"['30 Fifth Ave', 'Ste 1C', 'New York, NY 10011']",['https://s3-media3.fl.yelpcdn.com/bphoto/CeZ1Vn7_PktIKMQ9-lUjCw/o.jpg'],New York,10011
Two Bridges,Active Life,,,(646) 355-8397,"['82 Rutgers Slip', 'Ground Flr', 'New York, NY 10002']","['https://s3-media2.fl.yelpcdn.com/bphoto/PtyxwokqFt3wp3HsWRIx1w/o.jpg', 'https://s3-media2.fl.yelpcdn.com/bphoto/qZTVg7_z6Xc5ILZY5_BIDQ/o.jpg']",New York,10002
1 on 1 Chiropractic,Active Life,,,(212) 228-7072,"['62 E 1st St', 'Unit CSIS', 'New York, NY 10003']","['https://s3-media1.fl.yelpcdn.com/bphoto/IOpv-CPe7gRnZ_2_QZeiQg/o.jpg', 'https://s3-media2.fl.yelpcdn.com/bphoto/nK1XdGoe0Mu2O6x8nFlULA/o.jpg', 'https://s3-media1.fl.yelpcdn.com/bphoto/8tHLq_r8RPkavV2GkFYIYw/o.jpg']",New York,10003
"Psychobabble, Brooklyn",Active Life,,,(646) 504-2687,"['169 Wythe Ave', 'Ste 104', 'Brooklyn, NY 11249']","['https://s3-media3.fl.yelpcdn.com/bphoto/rvHcc7ZnFdqDK6QxYYW7mQ/o.jpg', 'https://s3-media2.fl.yelpcdn.com/bphoto/9MVUbGxhqVUtdQyi-ML6vg/o.jpg', 'https://s3-media3.fl.yelpcdn.com/bphoto/ZLIUzDP045Yg2Ruq_zp38w/o.jpg']",Brooklyn,11249
Community Chiropractic & Acupuncture of Park Slope,Active Life,,,(718) 398-3100,"['182 8th Ave', 'Ste 1', 'Brooklyn, NY 11215']","['https://s3-media2.fl.yelpcdn.com/bphoto/bhw5dSYK2LSHTWglpPbG_w/o.jpg', 'https://s3-media3.fl.yelpcdn.com/bphoto/6lHzRnA1Cco8aBAbjxKmIA/o.jpg', 'https://s3-media1.fl.yelpcdn.com/bphoto/sViMJF514TjL0v3FW8HxrQ/o.jpg']",Brooklyn,11215
Duke Center for Chiropractic Sports & Spine C.A.R.E,Active Life,,,(561) 571-0044,"['5550 Glades Rd', 'Ste 1088', 'Boca Raton, FL 33431']","['https://s3-media2.fl.yelpcdn.com/bphoto/teLucM750mHLs4EzniSVTg/o.jpg', 'https://s3-media4.fl.yelpcdn.com/bphoto/4V76uPAggYtG1-76VIJsJg/o.jpg', 'https://s3-media3.fl.yelpcdn.com/bphoto/J8BjdPmPdIdTK53eaqXUSA/o.jpg']",Boca Raton,33431
Integrative Physical Therapy of NYC,Active Life,,,(212) 953-6040,"['370 Lexington Ave', 'Ste 1212', 'New York, NY 10017']","['https://s3-media2.fl.yelpcdn.com/bphoto/3wISzosgzTQoMli7B1qATw/o.jpg', 'https://s3-media1.fl.yelpcdn.com/bphoto/MtchZ9D3gxkuwfFsilBPEA/o.jpg', 'https://s3-media3.fl.yelpcdn.com/bphoto/0XFQ4vxNBWQdA7a0b83DUA/o.jpg']",New York,10017
Angel Eye Astrology,Active Life,,,(347) 725-7499,"['204 E7th St', 'New York, NY 10009']","['https://s3-media1.fl.yelpcdn.com/bphoto/p0J44uUoxeqHy3weOVb2uw/o.jpg', 'https://s3-media3.fl.yelpcdn.com/bphoto/Rh-jeswz8Q2eK5sRBnk_vA/o.jpg', 'https://s3-media1.fl.yelpcdn.com/bphoto/WPOIF_bwbrbvQrccW4awqw/o.jpg']",New York,10009
Athalon Physical Therapy,Active Life,,,(212) 838-8023,"['115 E 57th St', 'Ste 605', 'New York, NY 10022']","['https://s3-media4.fl.yelpcdn.com/bphoto/nrik_yxWCRUOONYuQccMFA/o.jpg', 'https://s3-media2.fl.yelpcdn.com/bphoto/xrpLXVFqGm9xvbHlstskTg/o.jpg', 'https://s3-media2.fl.yelpcdn.com/bphoto/WLum4rmpRd0Z9nIw4qSpdw/o.jpg']",New York,10022
"Lower Manhattan Pain and Wellness Center: Josephine Huang, M.D",Active Life,,,(212) 226-1211,"['110 Lafayette St', 'Ste 601', 'New York, NY 10013']","['https://s3-media3.fl.yelpcdn.com/bphoto/EFmOZQxow-BVYhR1Ezv-Xw/o.jpg', 'https://s3-media2.fl.yelpcdn.com/bphoto/3z9jVZ03zf3aJtY5YWVXsw/o.jpg', 'https://s3-media4.fl.yelpcdn.com/bphoto/3K5rY5HwuJ32dd8-o8gJGQ/o.jpg']",New York,10013
Starr Sports Chiropractic Physical Therapy Acupuncture & NP,Active Life,,,(212) 614-8800,"['853 Broadway', 'Ste 1105', 'New York, NY 10003']","['https://s3-media3.fl.yelpcdn.com/bphoto/kCKtdImz25xmHc2ypt5Zuw/o.jpg', 'https://s3-media1.fl.yelpcdn.com/bphoto/F0tyJeVXHBDlZOe-VRPvPA/o.jpg', 'https://s3-media4.fl.yelpcdn.com/bphoto/clJJkRi5n2k1f9w10Y02Gg/o.jpg']",New York,10003
"Iris Kerin Orbuch, MD.",Active Life,,,(310) 850-0051,"['436 North Bedford Dr', 'Ste 308', 'Beverly Hills, CA 90210']","['https://s3-media2.fl.yelpcdn.com/bphoto/r-YS4yjKgRkAbkkTLzJVxg/o.jpg', 'https://s3-media4.fl.yelpcdn.com/bphoto/TEVnAwulRQOee5EaN8RVUQ/o.jpg', 'https://s3-media1.fl.yelpcdn.com/bphoto/YPILf3do9NYoVK9x1fyQtA/o.jpg']",Beverly Hills,90210
Gotham Rolfing,Active Life,,,(917) 754-5271,"['120 E 56th St', 'Ste 830', 'Manhattan, NY 10022']","['https://s3-media2.fl.yelpcdn.com/bphoto/VqEAVNS_V7wf6vCdix1dUw/o.jpg', 'https://s3-media3.fl.yelpcdn.com/bphoto/JUguEyABqP10NVIXW37F0w/o.jpg', 'https://s3-media2.fl.yelpcdn.com/bphoto/Ip1r18O6Lfdg_bs4mvJ_Zw/o.jpg']",Manhattan,10022
Integrative Spine & Sports - West,Active Life,,,(212) 362-4742,"['240 W 73rd St', 'New York, NY 10023']","['https://s3-media2.fl.yelpcdn.com/bphoto/2oivoM-Yijnj5wd5jirQ-g/o.jpg', 'https://s3-media3.fl.yelpcdn.com/bphoto/laKqal-JO0eYjkUOmxGrzQ/o.jpg', 'https://s3-media4.fl.yelpcdn.com/bphoto/hN_3prOrCXpZGFqH0U2xSQ/o.jpg']",New York,10023
Manhattan Lasik Center,Active Life,,,(212) 759-9617,"['110 East 55th', 'Fl 3', 'New York, NY 10022']","['https://s3-media1.fl.yelpcdn.com/bphoto/1MPsokhpGgaZyE_exU7uzg/o.jpg', 'https://s3-media3.fl.yelpcdn.com/bphoto/pLFqKROyoz3WOZh0034iHw/o.jpg', 'https://s3-media1.fl.yelpcdn.com/bphoto/OPYZGD2BGJT00nun1DXLQA/o.jpg']",New York,10022
Anthony Biz Chiropractic Wellness Center,Active Life,,,(917) 923-7121,"['40 Exchange Pl', 'Fl 3', 'New York, NY 10005']","['https://s3-media4.fl.yelpcdn.com/bphoto/ofbNILuAGCzXbNh11Vwmag/o.jpg', 'https://s3-media2.fl.yelpcdn.com/bphoto/vwQttL5Y45keMee1VETlHw/o.jpg', 'https://s3-media1.fl.yelpcdn.com/bphoto/oe_6ph-Sc_dZr4RIBkyqoA/o.jpg']",New York,10005
Willen Wellness Center,Active Life,,,(347) 371-2715,"['900 Broadway', 'Ste 403', 'New York, NY 10003']",[],New York,10003
Gotham SideWalks,Active Life,,,(718) 938-1400,"['New York City, NY 10002']","['https://s3-media4.fl.yelpcdn.com/bphoto/zGS9zQuAR3vGDnG0a_QF_w/o.jpg', 'https://s3-media1.fl.yelpcdn.com/bphoto/2jETHmtAIX7_nXC3sd1wbA/o.jpg', 'https://s3-media1.fl.yelpcdn.com/bphoto/UUIHwXbuhRT1tdB1gjavWg/o.jpg']",New York City,10002
Lux Physical Therapy and Performance,Active Life,,,(920) 217-5495,"['420 5th Ave', 'New York, NY 10018']","['https://s3-media1.fl.yelpcdn.com/bphoto/u-AQBFXdzDPyDueWK7qWJg/o.jpg', 'https://s3-media4.fl.yelpcdn.com/bphoto/iuDXhCjqluzgueFFj_EnYQ/o.jpg']",New York,10018
Lucy's Health Coaching,Active Life,,,,"['351 Stockholm St', 'Fl 1', 'Brooklyn, NY 11237']","['https://s3-media3.fl.yelpcdn.com/bphoto/3IZU9ZH6FdrzKiTGUj8qww/o.jpg', 'https://s3-media2.fl.yelpcdn.com/bphoto/zy2a1q7Hwy4BFxq1bpyvaw/o.jpg', 'https://s3-media4.fl.yelpcdn.com/bphoto/UlPY7eNKs4NAnaKcxzCnIg/o.jpg']",Brooklyn,11237
Gate1,Active Life,,,(718) 419-1398,"['7200 4th Ave', 'Brooklyn, NY 11209']","['https://s3-media4.fl.yelpcdn.com/bphoto/tvoqj3GYW9DFHHWHwQFQYA/o.jpg', 'https://s3-media3.fl.yelpcdn.com/bphoto/WSk0Mh6gLtUgwfvz7OPMXw/o.jpg', 'https://s3-media2.fl.yelpcdn.com/bphoto/JSWTqMcHNJQthphx8s-K8A/o.jpg']",Brooklyn,11209
Alta Physical Therapy,Active Life,,,(212) 956-2900,"['850 7th Ave', 'Ste 803', 'Manhattan, NY 10019']","['https://s3-media3.fl.yelpcdn.com/bphoto/cZ5C1p2LRHS2IWxjmSzEMw/o.jpg', 'https://s3-media1.fl.yelpcdn.com/bphoto/PsXt2EdlUmqDq4X7KoES9w/o.jpg', 'https://s3-media4.fl.yelpcdn.com/bphoto/SxXQSvkO115UdJuEyF470A/o.jpg']",Manhattan,10019
Beat The Bomb,Active Life,,,(917) 983-1115,"['255 Water St', 'Ste 106', 'Brooklyn, NY 11201']",['https://s3-media2.fl.yelpcdn.com/bphoto/vlqc3ium4VqkoyGh5w_Bpg/o.jpg'],Brooklyn,11201
New York Cares,Active Life,,,(212) 228-5000,"['65 Broadway', 'Fl 19', 'New York, NY 10006']","['https://s3-media3.fl.yelpcdn.com/bphoto/VsVlIUAqSUG8OtecY-9IdQ/o.jpg', 'https://s3-media3.fl.yelpcdn.com/bphoto/beFL95pWmpVCxOWqLQNU5w/o.jpg', 'https://s3-media4.fl.yelpcdn.com/bphoto/jsCIajhBnwcJtf3pCe1cVg/o.jpg']",New York,10006
PHLEX NYC,Active Life,,,(646) 885-6605,"['370 Lexington Ave', 'Ste 2300', 'New York, NY 10017']","['https://s3-media2.fl.yelpcdn.com/bphoto/y169F3eTKaaMw977kDcYzw/o.jpg', 'https://s3-media2.fl.yelpcdn.com/bphoto/AzBBWdzZ_gIneHlQAOOzYg/o.jpg', 'https://s3-media4.fl.yelpcdn.com/bphoto/HUdirIwAb_DKZdI4G9no_Q/o.jpg']",New York,10017
Escape The Room NYC - Midtown,Active Life,,,(347) 954-9160,"['24 West 25th St', 'Fl 8', 'New York, NY 10010']","['https://s3-media4.fl.yelpcdn.com/bphoto/Rqpm7lv0DACEvfFDiKk81Q/o.jpg', 'https://s3-media3.fl.yelpcdn.com/bphoto/oA4wvVxsefanTsYPMjyG-g/o.jpg', 'https://s3-media2.fl.yelpcdn.com/bphoto/QhuJ-HzSxAZoHmE0_Nepyw/o.jpg']",New York,10010
Spear Physical Therapy Financial District - 30 Broad,Active Life,,,(646) 790-7454,"['30 Broad St', 'Level A', 'New York, NY 10004']","['https://s3-media1.fl.yelpcdn.com/bphoto/iHy-k1me5fZLN3C9rVW7ag/o.jpg', 'https://s3-media4.fl.yelpcdn.com/bphoto/Ot3_YNdtXEFiaDqblxdSdA/o.jpg', 'https://s3-media2.fl.yelpcdn.com/bphoto/i1mBBkjmK20DEIrw8TOMCw/o.jpg']",New York,10004
Karuna Naturopathic Healthcare,Active Life,,,(646) 453-7333,"['New York, NY 10011']","['https://s3-media2.fl.yelpcdn.com/bphoto/uSxy8xNnv5xN2QnR9cKyaA/o.jpg', 'https://s3-media2.fl.yelpcdn.com/bphoto/8RQIhvMb4z3h3mEaRg_aqA/o.jpg', 'https://s3-media2.fl.yelpcdn.com/bphoto/SJqeHpsRrqKXLi2cgArH5w/o.jpg']",New York,10011
Brooklyn Botanic Garden,Active Life,,,(718) 623-7200,"['990 Washington Ave', 'Brooklyn, NY 11225']","['https://s3-media2.fl.yelpcdn.com/bphoto/gVyOrt9ixKc7CJygr5tJYg/o.jpg', 'https://s3-media1.fl.yelpcdn.com/bphoto/ufTUzCMeD8j7STG7KVH9qQ/o.jpg', 'https://s3-media1.fl.yelpcdn.com/bphoto/NkH8zMjc1KzFloIGp6R1jw/o.jpg']",Brooklyn,11225
"David R Kaplowitz, MD",Active Life,,,(212) 472-1410,"['710 Park Ave', 'New York, NY 10021']","['https://s3-media3.fl.yelpcdn.com/bphoto/8mk-SznW_rHUigdalLGQ2Q/o.jpg', 'https://s3-media3.fl.yelpcdn.com/bphoto/gv4Zc7UpQouD9GACVqMRBw/o.jpg', 'https://s3-media2.fl.yelpcdn.com/bphoto/5cvwNpILhjhF__znstFXZA/o.jpg']",New York,10021
Lumia Dental,Active Life,,,(212) 287-1275,"['160 Broadway', 'Ste 1004', 'New York, NY 10038']","['https://s3-media3.fl.yelpcdn.com/bphoto/sxXsLjaZ6uH4p434yy6vAA/o.jpg', 'https://s3-media3.fl.yelpcdn.com/bphoto/OKi2eDyZ_xdh_FjbUiKRIg/o.jpg', 'https://s3-media1.fl.yelpcdn.com/bphoto/yIgPQPJG4B1bW7z8vQCyIw/o.jpg']",New York,10038
Louis Peters,Active Life,,,(212) 518-6317,"['7709 5th Ave', 'Brooklyn, NY 11209']","['https://s3-media3.fl.yelpcdn.com/bphoto/3iAnKLrYg0IpwMEsUjNd-w/o.jpg', 'https://s3-media4.fl.yelpcdn.com/bphoto/1gGyzt8vs1UKd4CRN88ucQ/o.jpg', 'https://s3-media1.fl.yelpcdn.com/bphoto/elbR0J7TAKgW7gwo90gGqg/o.jpg']",Brooklyn,11209
Spring Forward Physical Therapy,Active Life,,,(212) 996-9700,"['30 E 60th St', 'Ste 1205', 'New York, NY 10022']","['https://s3-media1.fl.yelpcdn.com/bphoto/gq2pCiaiuGqwgzeYKde-tw/o.jpg', 'https://s3-media2.fl.yelpcdn.com/bphoto/DtWE9igya-DOf32hQeir9w/o.jpg', 'https://s3-media1.fl.yelpcdn.com/bphoto/wUFpBYpmdJ6eCzAaxqtRaw/o.jpg']",New York,10022
"Giulio Mazzarelli, DC",Active Life,,,(212) 673-4331,"['30 5th Ave', 'Ste 1C', 'Village Chiropractic Associates', 'New York, NY 10011']",['https://s3-media2.fl.yelpcdn.com/bphoto/vleywPmD373fCPxBYtTvtg/o.jpg'],New York,10011
Specific Chiropractic,Active Life,,,(212) 486-9800,"['150 East 55th St', 'Fl 2', 'New York, NY 10022']","['https://s3-media1.fl.yelpcdn.com/bphoto/xG7Dq0POqQxfYsws31A99A/o.jpg', 'https://s3-media3.fl.yelpcdn.com/bphoto/Y72nYtDERVQD6TWhxG138Q/o.jpg', 'https://s3-media2.fl.yelpcdn.com/bphoto/lmpd0cf_T27Lph3d-K7G_w/o.jpg']",New York,10022
Synergy Wellness Chiropractic & Physical Therapy,Active Life,,,(212) 533-4900,"['409 E 14th St', 'Ste C', 'New York, NY 10009']","['https://s3-media2.fl.yelpcdn.com/bphoto/4DWhvpzrvWJWhJguAZvUeQ/o.jpg', 'https://s3-media2.fl.yelpcdn.com/bphoto/xujhuph8gSYlOiXf9fzBIw/o.jpg', 'https://s3-media1.fl.yelpcdn.com/bphoto/tMbWLr_yt2FaaXZrZ8CT_Q/o.jpg']",New York,10009
"SungSim Acupuncture: Chris Bae, Dipl. Ac, L.Ac",Active Life,,,(917) 485-2509,"['33 W 46th St', 'Fl 5', 'New York, NY 10036']","['https://s3-media4.fl.yelpcdn.com/bphoto/dcjwG14hw3rzzS74JqViYQ/o.jpg', 'https://s3-media1.fl.yelpcdn.com/bphoto/yQArCR0CgSxK7kmHOtOZOg/o.jpg', 'https://s3-media4.fl.yelpcdn.com/bphoto/OF1I_LWWB4avtCJ-VbRFLQ/o.jpg']",New York,10036
Park Avenue LASEK,Active Life,,,(212) 741-8628,"['102 E 25th St', 'New York, NY 10010']","['https://s3-media2.fl.yelpcdn.com/bphoto/Z8dgTNP4ek2XX7vDSmFmlg/o.jpg', 'https://s3-media4.fl.yelpcdn.com/bphoto/xrEb83uYE0BBYoyQc_Txxw/o.jpg', 'https://s3-media2.fl.yelpcdn.com/bphoto/Kt-G1mWWjyijRZOpeI7p0A/o.jpg']",New York,10010
NYC Wingwoman,Active Life,,,(646) 883-2831,"['New York, NY 10128']","['https://s3-media2.fl.yelpcdn.com/bphoto/y77OAjCk8WZZaNuMAWWOrA/o.jpg', 'https://s3-media3.fl.yelpcdn.com/bphoto/dYRUldk7vkANCknoO8fENg/o.jpg', 'https://s3-media2.fl.yelpcdn.com/bphoto/s1fYSvM1qjIGZlizNqgDIA/o.jpg']",New York,10128
"Howard Benedikt, DC, DCBCN",Active Life,,,(212) 213-4574,"['18 E 41st St', 'Ste 1503', 'New York, NY 10017']","['https://s3-media1.fl.yelpcdn.com/bphoto/udzmvYBM_afaP-dCB9D4-A/o.jpg', 'https://s3-media2.fl.yelpcdn.com/bphoto/AGFEt6XxfDQnu8JzvElPag/o.jpg', 'https://s3-media1.fl.yelpcdn.com/bphoto/hY_9rHLPy5OhOZoD2UwMDw/o.jpg']",New York,10017
Lux Physical Therapy and Performance,Active Life,,,(920) 217-5495,"['2550 31st St', 'Queens, NY 11102']","['https://s3-media3.fl.yelpcdn.com/bphoto/L6_O7B6no9NokOeoSaggPQ/o.jpg', 'https://s3-media3.fl.yelpcdn.com/bphoto/XlVF3lMQtPTQw4tXEz0k2w/o.jpg']",Queens,11102
Touch of Life Physical Therapy,Active Life,,,(347) 762-6416,"['136 E 57th St', 'Ste 801', 'New York, NY 10022']","['https://s3-media1.fl.yelpcdn.com/bphoto/5e1nHUGXIXKqK1bvBvs14g/o.jpg', 'https://s3-media4.fl.yelpcdn.com/bphoto/XCopgUbIxX15-zLQJtwNTg/o.jpg', 'https://s3-media4.fl.yelpcdn.com/bphoto/LEGovwTvNlYbNrX4TK_OEQ/o.jpg']",New York,10022
Physio Logic,Active Life,,,(718) 260-1000,"['409 Fulton St', 'Fl 2', 'Brooklyn, NY 11201']","['https://s3-media1.fl.yelpcdn.com/bphoto/8oCCYv77xq8roa8MU-q00g/o.jpg', 'https://s3-media2.fl.yelpcdn.com/bphoto/6IRT0hn6hHusjkJQnoEx_g/o.jpg', 'https://s3-media1.fl.yelpcdn.com/bphoto/gmM8H-JKXppRes3vpSjyhA/o.jpg']",Brooklyn,11201
Mandel Vision,Active Life,,,(888) 866-3681,"['211 E 70th St', 'New York, NY 10021']","['https://s3-media4.fl.yelpcdn.com/bphoto/bWP0AkcG2h2NiZLR_uzXcA/o.jpg', 'https://s3-media4.fl.yelpcdn.com/bphoto/1fGh5JiuWJoEkaI17ocVaQ/o.jpg', 'https://s3-media1.fl.yelpcdn.com/bphoto/pV_jgeREBm_FiQNR5QkdmA/o.jpg']",New York,10021
"Gabrielle Lyon, DO",Active Life,,,(646) 920-2317,"['800A 5th Ave', 'Ste 205', 'The Ash Center', 'New York, NY 10065']",['https://s3-media1.fl.yelpcdn.com/bphoto/Z9nxcj1WuXwkovRyrvGSQA/o.jpg'],New York,10065
NYC Cycleboats,Active Life,,,(646) 392-7999,"['1301 Sinatra Dr N', 'Hoboken, NJ 07030']","['https://s3-media1.fl.yelpcdn.com/bphoto/Q0hXCLH4CT0Bk5UtaA64IQ/o.jpg', 'https://s3-media4.fl.yelpcdn.com/bphoto/OS67-5stAc0Ua2W9Bww2lA/o.jpg', 'https://s3-media2.fl.yelpcdn.com/bphoto/MKCeYv_VFNv_C-o9MG5o0Q/o.jpg']",Hoboken,07030
NYPT Health & Rehab,Active Life,,,(646) 491-9015,"['138 5th Ave', 'Fl 2', 'New York City, NY 10011']","['https://s3-media4.fl.yelpcdn.com/bphoto/G6JOr0VPRF30VuouBmzLCw/o.jpg', 'https://s3-media4.fl.yelpcdn.com/bphoto/OoRYdWKe5exkNOPOGOPxpg/o.jpg', 'https://s3-media2.fl.yelpcdn.com/bphoto/UG7-3D74i8ETtFVPYpPdbA/o.jpg']",New York City,10011
Lyme Resource Medical,Active Life,,,(212) 799-1121,"['566 7th Ave', 'Ste 502', 'New York, NY 10018']","['https://s3-media4.fl.yelpcdn.com/bphoto/aNeJFBgGkxQA59Q0ibYhDg/o.jpg', 'https://s3-media1.fl.yelpcdn.com/bphoto/-PAvyF9EbB4sjp9ykFaF2w/o.jpg', 'https://s3-media2.fl.yelpcdn.com/bphoto/nTNKsJJKtjcmwBRKApRK0g/o.jpg']",New York,10018
Joseph Campisi DC,Active Life,,,(718) 848-6663,"['13355 Lefferts Blvd', 'South Ozone Park, NY 11420']",['https://s3-media3.fl.yelpcdn.com/bphoto/Qv5S5u8msxw0bumM44GAjg/o.jpg'],South Ozone Park,11420
THRIVE Integrated Physical Therapy PC,Active Life,,,(212) 254-7750,"['611 Broadway', 'Ste 503', 'New York, NY 10012']","['https://s3-media1.fl.yelpcdn.com/bphoto/0ib6Kb30KLHdYM3uJyn7Bg/o.jpg', 'https://s3-media4.fl.yelpcdn.com/bphoto/_VU6UgvRuZ4u1-ExgXeOKg/o.jpg', 'https://s3-media4.fl.yelpcdn.com/bphoto/zQwQUjUYDuzGs70fmQU_hQ/o.jpg']",New York,10012
Downtown Boathouse,Active Life,,,,"['Pier 26', 'New York, NY 10013']","['https://s3-media4.fl.yelpcdn.com/bphoto/qdPSBXUDs6kzMLOJTJ-IbQ/o.jpg', 'https://s3-media2.fl.yelpcdn.com/bphoto/mzO7u3bAgAVXYmmXjp29NQ/o.jpg', 'https://s3-media1.fl.yelpcdn.com/bphoto/ee8J9BCcbLU_sO1126qWhw/o.jpg']",New York,10013
Spear Physical Therapy Chelsea - 16th St,Active Life,,,(646) 841-1411,"['269 W 16th St', 'New York, NY 10011']","['https://s3-media1.fl.yelpcdn.com/bphoto/jAx8TjxWoKhSIzsoROiVHA/o.jpg', 'https://s3-media1.fl.yelpcdn.com/bphoto/_kcV6LcOy-NgELql9qLRTg/o.jpg', 'https://s3-media3.fl.yelpcdn.com/bphoto/feOMpl63F2tZrTuxPw1qfQ/o.jpg']",New York,10011
Bensonhurst Chiropractic,Active Life,,,(929) 341-1402,"['7000 Bay Pkwy', 'Ste D', 'Brooklyn, NY 11204']",[],Brooklyn,11204
Merchant's House Museum,Active Life,,,(212) 777-1089,"['29 E 4th St', 'New York, NY 10003']","['https://s3-media2.fl.yelpcdn.com/bphoto/E5YZQvYnRNK43Tn4811q7w/o.jpg', 'https://s3-media3.fl.yelpcdn.com/bphoto/AF8gquJViIfEdWiSUSRbfg/o.jpg', 'https://s3-media1.fl.yelpcdn.com/bphoto/hrBqsh2B3S8YnuWj-8VSMg/o.jpg']",New York,10003
Peterson Chiropractic,Active Life,,,(917) 746-9634,"['280 Madison', 'Ground Floor', 'New York, NY 10016']","['https://s3-media2.fl.yelpcdn.com/bphoto/2lllol3L1RTFEG5TRowJgQ/o.jpg', 'https://s3-media3.fl.yelpcdn.com/bphoto/PohT2FRpbXywrD2Ni3Xbtw/o.jpg', 'https://s3-media2.fl.yelpcdn.com/bphoto/cRObat_cP1bm2OR3iKGSMw/o.jpg']",New York,10016
